BRITE-AUSTRIA           
1 39091U 13009F   22231.44370465  .00000111  00000+0  53611-4 0  9990
2 39091  98.4043  67.1066 0011707  90.4678 269.7850 14.35292030496463
IRIS                    
1 39197U 13033A   22231.49028572  .00000614  00000+0  89207-4 0  9996
2 39197  97.9715  56.7801 0027252 182.2237 177.8858 14.79313955493297
HISAKI (SPRINT-A)       
1 39253U 13049A   22231.36137582  .00000072  00000+0  73974-5 0  9997
2 39253  29.7202 125.0650 0137382 206.9215 152.4174 13.55285592441642
CASSIOPE                
1 39265U 13055A   22231.50302021  .00009152  00000+0  24052-3 0  9994
2 39265  80.9642 200.4277 0619663 131.1240 234.5177 14.39585322461407
STSAT-3                 
1 39422U 13066G   22231.45576540  .00001273  00000+0  13466-3 0  9997
2 39422  97.4714 233.2200 0024212  72.7756 287.6112 14.90621871475227
SWARM B                 
1 39451U 13067A   22231.51996940  .00001737  00000+0  77606-4 0  9999
2 39451  87.7491  42.4297 0003024  85.8184 274.3406 15.20664168470513
SWARM A                 
1 39452U 13067B   22231.47307689  .00003701  00000+0  11545-3 0  9993
2 39452  87.3631 202.0218 0003367 103.1266 257.0361 15.32871860491588
SWARM C                 
1 39453U 13067C   22231.47298220  .00003743  00000+0  11677-3 0  9996
2 39453  87.3482 201.3659 0003364 103.2563 256.9063 15.32871992491541
BRITE-CA1 (TORONTO)     
1 40020U 14033L   22231.43818045  .00000447  00000+0  83416-4 0  9990
2 40020  97.7860  27.2172 0088021  63.0822 297.9343 14.67108794436890
OCO 2                   
1 40059U 14035A   22231.52416208  .00000270  00000+0  69907-4 0  9992
2 40059  98.2039 171.7972 0001306  84.6374 275.4974 14.57123936432522
BRITE-PL2 (HEWELIUSZ)   
1 40119U 14049B   22231.27019902  .00000845  00000+0  10466-3 0  9999
2 40119  97.8846 326.2576 0018061  40.5783 319.6774 14.85234780433338
RESURS P2               
1 40360U 14087A   22231.57777539  .00004271  00000+0  11950-3 0  9995
2 40360  97.2054 315.2396 0008111 212.8802 253.8758 15.37156542427959
MMS 1                   
1 40482U 15011A   22227.30507974 -.00002058  00000+0  00000+0 0  9990
2 40482  31.2908 100.5261 8745787  57.6975 357.9450  0.28410233 13474
MMS 2                   
1 40483U 15011B   22230.74991463 -.00002428  00000+0  00000+0 0  9994
2 40483  31.2545 100.3416 8750339  57.9290 350.0718  0.28412970 13532
MMS 3                   
1 40484U 15011C   22230.90963685 -.00002447  00000+0  00000+0 0  9999
2 40484  31.2529 100.3145 8749258  57.9479   6.4134  0.28407150 13225
MMS 4                   
1 40485U 15011D   22230.91658130 -.00002448  00000+0  00000+0 0  9998
2 40485  31.2559 100.3090 8749717  57.9576   7.0884  0.28408718 13439
ASTROSAT                
1 40930U 15052A   22231.28370494  .00001217  00000+0  80802-4 0  9998
2 40930   5.9975  90.1530 0009075 321.9148  38.0338 14.76710035372450
