[{"OBJECT_NAME":"BRITE-AUSTRIA","OBJECT_ID":"2013-009F","EPOCH":"2022-08-19T10:38:56.081760","MEAN_MOTION":14.3529203,"ECCENTRICITY":0.0011707,"INCLINATION":98.4043,"RA_OF_ASC_NODE":67.1066,"ARG_OF_PERICENTER":90.4678,"MEAN_ANOMALY":269.785,"EPHEMERIS_TYPE":0,"CLASSIFICATION_TYPE":"U","NORAD_CAT_ID":39091,"ELEMENT_SET_NO":999,"REV_AT_EPOCH":49646,"BSTAR":5.3611e-5,"MEAN_MOTION_DOT":1.11e-6,"MEAN_MOTION_DDOT":0},{"OBJECT_NAME":"IRIS","OBJECT_ID":"2013-033A","EPOCH":"2022-08-19T11:46:00.686208","MEAN_MOTION":14.79313955,"ECCENTRICITY":0.0027252,"INCLINATION":97.9715,"RA_OF_ASC_NODE":56.7801,"ARG_OF_PERICENTER":182.2237,"MEAN_ANOMALY":177.8858,"EPHEMERIS_TYPE":0,"CLASSIFICATION_TYPE":"U","NORAD_CAT_ID":39197,"ELEMENT_SET_NO":999,"REV_AT_EPOCH":49329,"BSTAR":8.9207e-5,"MEAN_MOTION_DOT":6.14e-6,"MEAN_MOTION_DDOT":0},{"OBJECT_NAME":"HISAKI (SPRINT-A)","OBJECT_ID":"2013-049A","EPOCH":"2022-08-19T08:40:22.870848","MEAN_MOTION":13.55285592,"ECCENTRICITY":0.0137382,"INCLINATION":29.7202,"RA_OF_ASC_NODE":125.065,"ARG_OF_PERICENTER":206.9215,"MEAN_ANOMALY":152.4174,"EPHEMERIS_TYPE":0,"CLASSIFICATION_TYPE":"U","NORAD_CAT_ID":39253,"ELEMENT_SET_NO":999,"REV_AT_EPOCH":44164,"BSTAR":7.3974e-6,"MEAN_MOTION_DOT":7.2e-7,"MEAN_MOTION_DDOT":0},{"OBJECT_NAME":"CASSIOPE","OBJECT_ID":"2013-055A","EPOCH":"2022-08-19T12:04:20.946144","MEAN_MOTION":14.39585322,"ECCENTRICITY":0.0619663,"INCLINATION":80.9642,"RA_OF_ASC_NODE":200.4277,"ARG_OF_PERICENTER":131.124,"MEAN_ANOMALY":234.5177,"EPHEMERIS_TYPE":0,"CLASSIFICATION_TYPE":"U","NORAD_CAT_ID":39265,"ELEMENT_SET_NO":999,"REV_AT_EPOCH":46140,"BSTAR":0.00024052,"MEAN_MOTION_DOT":9.152e-5,"MEAN_MOTION_DDOT":0},{"OBJECT_NAME":"STSAT-3","OBJECT_ID":"2013-066G","EPOCH":"2022-08-19T10:56:18.130560","MEAN_MOTION":14.90621871,"ECCENTRICITY":0.0024212,"INCLINATION":97.4714,"RA_OF_ASC_NODE":233.22,"ARG_OF_PERICENTER":72.7756,"MEAN_ANOMALY":287.6112,"EPHEMERIS_TYPE":0,"CLASSIFICATION_TYPE":"U","NORAD_CAT_ID":39422,"ELEMENT_SET_NO":999,"REV_AT_EPOCH":47522,"BSTAR":0.00013466,"MEAN_MOTION_DOT":1.273e-5,"MEAN_MOTION_DDOT":0},{"OBJECT_NAME":"SWARM B","OBJECT_ID":"2013-067A","EPOCH":"2022-08-19T12:28:45.356160","MEAN_MOTION":15.20664168,"ECCENTRICITY":0.0003024,"INCLINATION":87.7491,"RA_OF_ASC_NODE":42.4297,"ARG_OF_PERICENTER":85.8184,"MEAN_ANOMALY":274.3406,"EPHEMERIS_TYPE":0,"CLASSIFICATION_TYPE":"U","NORAD_CAT_ID":39451,"ELEMENT_SET_NO":999,"REV_AT_EPOCH":47051,"BSTAR":7.7606e-5,"MEAN_MOTION_DOT":1.737e-5,"MEAN_MOTION_DDOT":0},{"OBJECT_NAME":"SWARM A","OBJECT_ID":"2013-067B","EPOCH":"2022-08-19T11:21:13.843296","MEAN_MOTION":15.3287186,"ECCENTRICITY":0.0003367,"INCLINATION":87.3631,"RA_OF_ASC_NODE":202.0218,"ARG_OF_PERICENTER":103.1266,"MEAN_ANOMALY":257.0361,"EPHEMERIS_TYPE":0,"CLASSIFICATION_TYPE":"U","NORAD_CAT_ID":39452,"ELEMENT_SET_NO":999,"REV_AT_EPOCH":49158,"BSTAR":0.00011545,"MEAN_MOTION_DOT":3.701e-5,"MEAN_MOTION_DDOT":0},{"OBJECT_NAME":"SWARM C","OBJECT_ID":"2013-067C","EPOCH":"2022-08-19T11:21:05.662080","MEAN_MOTION":15.32871992,"ECCENTRICITY":0.0003364,"INCLINATION":87.3482,"RA_OF_ASC_NODE":201.3659,"ARG_OF_PERICENTER":103.2563,"MEAN_ANOMALY":256.9063,"EPHEMERIS_TYPE":0,"CLASSIFICATION_TYPE":"U","NORAD_CAT_ID":39453,"ELEMENT_SET_NO":999,"REV_AT_EPOCH":49154,"BSTAR":0.00011677,"MEAN_MOTION_DOT":3.743e-5,"MEAN_MOTION_DDOT":0},{"OBJECT_NAME":"BRITE-CA1 (TORONTO)","OBJECT_ID":"2014-033L","EPOCH":"2022-08-19T10:30:58.790880","MEAN_MOTION":14.67108794,"ECCENTRICITY":0.0088021,"INCLINATION":97.786,"RA_OF_ASC_NODE":27.2172,"ARG_OF_PERICENTER":63.0822,"MEAN_ANOMALY":297.9343,"EPHEMERIS_TYPE":0,"CLASSIFICATION_TYPE":"U","NORAD_CAT_ID":40020,"ELEMENT_SET_NO":999,"REV_AT_EPOCH":43689,"BSTAR":8.3416e-5,"MEAN_MOTION_DOT":4.47e-6,"MEAN_MOTION_DDOT":0},{"OBJECT_NAME":"OCO 2","OBJECT_ID":"2014-035A","EPOCH":"2022-08-19T12:34:47.603712","MEAN_MOTION":14.57123936,"ECCENTRICITY":0.0001306,"INCLINATION":98.2039,"RA_OF_ASC_NODE":171.7972,"ARG_OF_PERICENTER":84.6374,"MEAN_ANOMALY":275.4974,"EPHEMERIS_TYPE":0,"CLASSIFICATION_TYPE":"U","NORAD_CAT_ID":40059,"ELEMENT_SET_NO":999,"REV_AT_EPOCH":43252,"BSTAR":6.9907e-5,"MEAN_MOTION_DOT":2.7e-6,"MEAN_MOTION_DDOT":0},{"OBJECT_NAME":"BRITE-PL2 (HEWELIUSZ)","OBJECT_ID":"2014-049B","EPOCH":"2022-08-19T06:29:05.195328","MEAN_MOTION":14.8523478,"ECCENTRICITY":0.0018061,"INCLINATION":97.8846,"RA_OF_ASC_NODE":326.2576,"ARG_OF_PERICENTER":40.5783,"MEAN_ANOMALY":319.6774,"EPHEMERIS_TYPE":0,"CLASSIFICATION_TYPE":"U","NORAD_CAT_ID":40119,"ELEMENT_SET_NO":999,"REV_AT_EPOCH":43333,"BSTAR":0.00010466,"MEAN_MOTION_DOT":8.45e-6,"MEAN_MOTION_DDOT":0},{"OBJECT_NAME":"RESURS P2","OBJECT_ID":"2014-087A","EPOCH":"2022-08-19T13:51:59.793696","MEAN_MOTION":15.37156542,"ECCENTRICITY":0.0008111,"INCLINATION":97.2054,"RA_OF_ASC_NODE":315.2396,"ARG_OF_PERICENTER":212.8802,"MEAN_ANOMALY":253.8758,"EPHEMERIS_TYPE":0,"CLASSIFICATION_TYPE":"U","NORAD_CAT_ID":40360,"ELEMENT_SET_NO":999,"REV_AT_EPOCH":42795,"BSTAR":0.0001195,"MEAN_MOTION_DOT":4.271e-5,"MEAN_MOTION_DDOT":0},{"OBJECT_NAME":"MMS 1","OBJECT_ID":"2015-011A","EPOCH":"2022-08-15T07:19:18.889536","MEAN_MOTION":0.28410233,"ECCENTRICITY":0.8745787,"INCLINATION":31.2908,"RA_OF_ASC_NODE":100.5261,"ARG_OF_PERICENTER":57.6975,"MEAN_ANOMALY":357.945,"EPHEMERIS_TYPE":0,"CLASSIFICATION_TYPE":"U","NORAD_CAT_ID":40482,"ELEMENT_SET_NO":999,"REV_AT_EPOCH":1347,"BSTAR":0,"MEAN_MOTION_DOT":-2.058e-5,"MEAN_MOTION_DDOT":0},{"OBJECT_NAME":"MMS 2","OBJECT_ID":"2015-011B","EPOCH":"2022-08-18T17:59:52.624032","MEAN_MOTION":0.2841297,"ECCENTRICITY":0.8750339,"INCLINATION":31.2545,"RA_OF_ASC_NODE":100.3416,"ARG_OF_PERICENTER":57.929,"MEAN_ANOMALY":350.0718,"EPHEMERIS_TYPE":0,"CLASSIFICATION_TYPE":"U","NORAD_CAT_ID":40483,"ELEMENT_SET_NO":999,"REV_AT_EPOCH":1353,"BSTAR":0,"MEAN_MOTION_DOT":-2.428e-5,"MEAN_MOTION_DDOT":0},{"OBJECT_NAME":"MMS 3","OBJECT_ID":"2015-011C","EPOCH":"2022-08-18T21:49:52.623840","MEAN_MOTION":0.2840715,"ECCENTRICITY":0.8749258,"INCLINATION":31.2529,"RA_OF_ASC_NODE":100.3145,"ARG_OF_PERICENTER":57.9479,"MEAN_ANOMALY":6.4134,"EPHEMERIS_TYPE":0,"CLASSIFICATION_TYPE":"U","NORAD_CAT_ID":40484,"ELEMENT_SET_NO":999,"REV_AT_EPOCH":1322,"BSTAR":0,"MEAN_MOTION_DOT":-2.447e-5,"MEAN_MOTION_DDOT":0},{"OBJECT_NAME":"MMS 4","OBJECT_ID":"2015-011D","EPOCH":"2022-08-18T21:59:52.624320","MEAN_MOTION":0.28408718,"ECCENTRICITY":0.8749717,"INCLINATION":31.2559,"RA_OF_ASC_NODE":100.309,"ARG_OF_PERICENTER":57.9576,"MEAN_ANOMALY":7.0884,"EPHEMERIS_TYPE":0,"CLASSIFICATION_TYPE":"U","NORAD_CAT_ID":40485,"ELEMENT_SET_NO":999,"REV_AT_EPOCH":1343,"BSTAR":0,"MEAN_MOTION_DOT":-2.448e-5,"MEAN_MOTION_DDOT":0},{"OBJECT_NAME":"ASTROSAT","OBJECT_ID":"2015-052A","EPOCH":"2022-08-19T06:48:32.106816","MEAN_MOTION":14.76710035,"ECCENTRICITY":0.0009075,"INCLINATION":5.9975,"RA_OF_ASC_NODE":90.153,"ARG_OF_PERICENTER":321.9148,"MEAN_ANOMALY":38.0338,"EPHEMERIS_TYPE":0,"CLASSIFICATION_TYPE":"U","NORAD_CAT_ID":40930,"ELEMENT_SET_NO":999,"REV_AT_EPOCH":37245,"BSTAR":8.0802e-5,"MEAN_MOTION_DOT":1.217e-5,"MEAN_MOTION_DDOT":0}]